OBJECT_NAME,OBJECT_ID,EPOCH,MEAN_MOTION,ECCENTRICITY,INCLINATION,RA_OF_ASC_NODE,ARG_OF_PERICENTER,MEAN_ANOMALY,EPHEMERIS_TYPE,CLASSIFICATION_TYPE,NORAD_CAT_ID,ELEMENT_SET_NO,REV_AT_EPOCH,BSTAR,MEAN_MOTION_DOT,MEAN_MOTION_DDOT
STARLINK-35418,2025-223AB,2026-05-20T04:44:29.920128,15.34413259,.00007035,53.1546,322.0311,9.7051,350.3965,0,U,65879,999,3515,.68435399E-3,.22826E-3,0
STARLINK-35445,2025-223AC,2026-05-19T19:14:35.536416,15.33559007,.0000505,53.1520,323.8263,5.2602,354.8405,0,U,65880,999,3509,.21351417E-3,.6658E-4,0
STARLINK-35464,2025-223AD,2026-05-19T20:25:13.263744,15.34430553,.000137,53.1656,323.4306,309.0618,51.0262,0,U,65881,999,3510,.72352E-3,.24171E-3,0
STARLINK-35270,2025-224A,2026-05-20T00:10:50.199744,15.34407570,.00011539,53.1601,39.3652,92.5170,267.5965,0,U,65882,999,3575,.34951536E-3,.11454E-3,0
STARLINK-35367,2025-224B,2026-05-19T23:52:39.039456,15.34422704,.00011478,53.1601,39.2832,89.4705,270.6429,0,U,65883,999,3575,.59370327E-3,.1975E-3,0
STARLINK-35384,2025-224C,2026-05-20T00:24:20.858112,15.30210015,.00009837,53.1565,40.1236,52.6439,307.4651,0,U,65884,999,3574,.53102823E-3,.15406E-3,0
STARLINK-35415,2025-224D,2026-05-19T22:09:46.467072,15.34416815,.0001056,53.1604,39.5498,91.3831,268.7293,0,U,65885,999,3569,.89095E-3,.29862E-3,0
STARLINK-35413,2025-224E,2026-05-19T23:37:29.968896,15.34379021,.00014617,53.1614,39.2138,75.8895,284.2270,0,U,65886,999,3570,.89434581E-3,.29941E-3,0
STARLINK-35332,2025-224F,2026-05-20T00:59:11.249088,15.34401024,.00012122,53.1607,38.8616,78.5611,281.5528,0,U,65887,999,3579,.58712165E-3,.19513E-3,0
STARLINK-35362,2025-224G,2026-05-20T03:43:05.512224,15.30214397,.00010577,53.1574,39.5658,75.3011,284.8107,0,U,65888,999,3576,.37110221E-3,.10653E-3,0
STARLINK-35193,2025-224H,2026-05-20T00:48:39.481056,15.30202947,.00013518,53.1597,40.2243,82.7376,277.3779,0,U,65889,999,3577,.29451029E-3,.8374E-4,0
STARLINK-34542,2025-224J,2026-05-20T00:44:06.025920,15.30205165,.00010374,53.1593,40.2151,98.9653,261.1465,0,U,65890,999,3579,.33969898E-3,.9717E-4,0
STARLINK-34791,2025-224K,2026-05-20T00:57:46.668672,15.30209088,.00012177,53.1604,40.2640,95.0096,265.1044,0,U,65891,999,3579,.21578757E-3,.6039E-4,0
STARLINK-34853,2025-224L,2026-05-19T22:27:57.234240,15.34413004,.00007,53.1590,39.6296,65.4130,294.6945,0,U,65892,999,3572,.65682E-3,.21889E-3,0
STARLINK-34921,2025-224M,2026-05-20T00:39:32.919840,15.30220501,.00012381,53.1587,40.1813,81.9370,278.1772,0,U,65893,999,3579,.67262422E-3,.19627E-3,0
STARLINK-34672,2025-224N,2026-05-20T00:28:54.292512,15.30210228,.00011885,53.1586,40.1373,92.9895,267.1241,0,U,65894,999,3579,.22781295E-3,.6396E-4,0
STARLINK-34898,2025-224P,2026-05-20T00:07:48.406368,15.34395576,.00011244,53.1600,39.3418,89.8233,270.2899,0,U,65895,999,3580,.52637584E-3,.17447E-3,0
STARLINK-34906,2025-224Q,2026-05-19T23:47:55.346784,15.31727123,.00014195,53.1616,39.9620,88.7072,271.4092,0,U,65896,999,3579,.48783786E-3,.14816E-3,0
STARLINK-34934,2025-224R,2026-05-19T23:49:37.559712,15.34419684,.00011749,53.1609,39.2589,87.6221,272.4916,0,U,65897,999,3575,.68581897E-3,.2288E-3,0
STARLINK-34936,2025-224S,2026-05-19T22:24:56.323872,15.34435670,.0001438,53.1598,39.6046,79.0386,281.0778,0,U,65898,999,3579,.97732E-3,.32826E-3,0
STARLINK-35272,2025-224T,2026-05-19T23:34:28.665408,15.34412664,.00016833,53.1619,39.1920,94.0455,266.0740,0,U,65899,999,3579,.46991509E-3,.1554E-3,0
STARLINK-35264,2025-224U,2026-05-19T23:28:25.234176,15.34406761,.0001714,53.1611,39.1638,99.6579,260.4618,0,U,65900,999,3579,.45138E-3,.14908E-3,0
STARLINK-35249,2025-224V,2026-05-20T00:31:56.614656,15.30211635,.00010885,53.1575,40.1456,71.9643,288.1476,0,U,65901,999,3577,.56389628E-3,.16385E-3,0
STARLINK-35278,2025-224W,2026-05-20T00:47:08.409408,15.30206870,.00011135,53.1591,40.2142,89.8345,270.2784,0,U,65902,999,3579,.30118759E-3,.8573E-4,0
STARLINK-35210,2025-224X,2026-05-20T01:00:49.260384,15.30208935,.00015163,53.1610,40.2754,63.2549,296.8607,0,U,65903,999,3577,.47183948E-3,.13645E-3,0
STARLINK-35348,2025-224Y,2026-05-19T23:40:32.283264,15.34410911,.0001512,53.1623,39.2185,97.2474,262.8701,0,U,65904,999,3575,.36946924E-3,.12131E-3,0
STARLINK-35380,2025-224Z,2026-05-20T00:18:16.015968,15.30210708,.00010458,53.1583,40.0878,97.0744,263.0376,0,U,65905,999,3574,.37051417E-3,.10634E-3,0
STARLINK-35385,2025-224AA,2026-05-19T23:55:41.078208,15.34401491,.00013369,53.1608,39.2838,93.0351,267.0804,0,U,65906,999,3578,.35897477E-3,.11772E-3,0
STARLINK-35347,2025-224AB,2026-05-19T23:46:35.868288,15.34407886,.00013615,53.1608,39.2405,92.5992,267.5167,0,U,65907,999,3578,.62850739E-3,.20923E-3,0
STARLINK-35329,2025-224AC,2026-05-20T00:04:46.339104,15.34406543,.00008659,53.1596,39.3225,90.2617,269.8485,0,U,65908,999,3579,.43256241E-3,.1427E-3,0
