STARLINK-35418          
1 65879U 25223AB  26140.19756852  .00022826  00000+0  68435-3 0  9993
2 65879  53.1546 322.0311 0000703   9.7051 350.3965 15.34413259 35157
STARLINK-35445          
1 65880U 25223AC  26139.80180019  .00006658  00000+0  21351-3 0  9998
2 65880  53.1520 323.8263 0000505   5.2602 354.8405 15.33559007 35091
STARLINK-35464          
1 65881U 25223AD  26139.85084796  .00024171  00000+0  72352-3 0  9996
2 65881  53.1656 323.4306 0001370 309.0618  51.0262 15.34430553 35103
STARLINK-35270          
1 65882U 25224A   26140.00752546  .00011454  00000+0  34952-3 0  9996
2 65882  53.1601  39.3652 0001153  92.5170 267.5965 15.34407570 35755
STARLINK-35367          
1 65883U 25224B   26139.99489629  .00019750  00000+0  59370-3 0  9990
2 65883  53.1601  39.2832 0001147  89.4705 270.6429 15.34422704 35753
STARLINK-35384          
1 65884U 25224C   26140.01690808  .00015406  00000+0  53103-3 0  9991
2 65884  53.1565  40.1236 0000983  52.6439 307.4651 15.30210015 35746
STARLINK-35415          
1 65885U 25224D   26139.92345448  .00029862  00000+0  89095-3 0  9997
2 65885  53.1604  39.5498 0001056  91.3831 268.7293 15.34416815 35696
STARLINK-35413          
1 65886U 25224E   26139.98437464  .00029941  00000+0  89435-3 0  9990
2 65886  53.1614  39.2138 0001461  75.8895 284.2270 15.34379021 35700
STARLINK-35332          
1 65887U 25224F   26140.04110242  .00019513  00000+0  58712-3 0  9990
2 65887  53.1607  38.8616 0001212  78.5611 281.5528 15.34401024 35793
STARLINK-35362          
1 65888U 25224G   26140.15492491  .00010653  00000+0  37110-3 0  9997
2 65888  53.1574  39.5658 0001057  75.3011 284.8107 15.30214397 35764
STARLINK-35193          
1 65889U 25224H   26140.03379029  .00008374  00000+0  29451-3 0  9992
2 65889  53.1597  40.2243 0001351  82.7376 277.3779 15.30202947 35773
STARLINK-34542          
1 65890U 25224J   26140.03062530  .00009717  00000+0  33970-3 0  9993
2 65890  53.1593  40.2151 0001037  98.9653 261.1465 15.30205165 35797
STARLINK-34791          
1 65891U 25224K   26140.04012348  .00006039  00000+0  21579-3 0  9993
2 65891  53.1604  40.2640 0001217  95.0096 265.1044 15.30209088 35798
STARLINK-34853          
1 65892U 25224L   26139.93607910  .00021889  00000+0  65682-3 0  9998
2 65892  53.1590  39.6296 0000700  65.4130 294.6945 15.34413004 35727
STARLINK-34921          
1 65893U 25224M   26140.02746435  .00019627  00000+0  67262-3 0  9990
2 65893  53.1587  40.1813 0001238  81.9370 278.1772 15.30220501 35798
STARLINK-34672          
1 65894U 25224N   26140.02007283  .00006396  00000+0  22781-3 0  9998
2 65894  53.1586  40.1373 0001188  92.9895 267.1241 15.30210228 35791
STARLINK-34898          
1 65895U 25224P   26140.00542137  .00017447  00000+0  52638-3 0  9992
2 65895  53.1600  39.3418 0001124  89.8233 270.2899 15.34395576 35800
STARLINK-34906          
1 65896U 25224Q   26139.99161281  .00014816  00000+0  48784-3 0  9990
2 65896  53.1616  39.9620 0001419  88.7072 271.4092 15.31727123 35795
STARLINK-34934          
1 65897U 25224R   26139.99279583  .00022880  00000+0  68582-3 0  9994
2 65897  53.1609  39.2589 0001174  87.6221 272.4916 15.34419684 35752
STARLINK-34936          
1 65898U 25224S   26139.93398523  .00032826  00000+0  97732-3 0  9995
2 65898  53.1598  39.6046 0001438  79.0386 281.0778 15.34435670 35791
STARLINK-35272          
1 65899U 25224T   26139.98227622  .00015540  00000+0  46992-3 0  9998
2 65899  53.1619  39.1920 0001683  94.0455 266.0740 15.34412664 35798
STARLINK-35264          
1 65900U 25224U   26139.97806984  .00014908  00000+0  45138-3 0  9992
2 65900  53.1611  39.1638 0001714  99.6579 260.4618 15.34406761 35795
STARLINK-35249          
1 65901U 25224V   26140.02218304  .00016385  00000+0  56390-3 0  9997
2 65901  53.1575  40.1456 0001088  71.9643 288.1476 15.30211635 35771
STARLINK-35278          
1 65902U 25224W   26140.03273622  .00008573  00000+0  30119-3 0  9994
2 65902  53.1591  40.2142 0001113  89.8345 270.2784 15.30206870 35790
STARLINK-35210          
1 65903U 25224X   26140.04223681  .00013645  00000+0  47184-3 0  9992
2 65903  53.1610  40.2754 0001516  63.2549 296.8607 15.30208935 35771
STARLINK-35348          
1 65904U 25224Y   26139.98648476  .00012131  00000+0  36947-3 0  9991
2 65904  53.1623  39.2185 0001512  97.2474 262.8701 15.34410911 35751
STARLINK-35380          
1 65905U 25224Z   26140.01268537  .00010634  00000+0  37051-3 0  9997
2 65905  53.1583  40.0878 0001045  97.0744 263.0376 15.30210708 35743
STARLINK-35385          
1 65906U 25224AA  26139.99700322  .00011772  00000+0  35897-3 0  9996
2 65906  53.1608  39.2838 0001336  93.0351 267.0804 15.34401491 35780
STARLINK-35347          
1 65907U 25224AB  26139.99069292  .00020923  00000+0  62851-3 0  9999
2 65907  53.1608  39.2405 0001361  92.5992 267.5167 15.34407886 35785
STARLINK-35329          
1 65908U 25224AC  26140.00331411  .00014270  00000+0  43256-3 0  9995
2 65908  53.1596  39.3225 0000865  90.2617 269.8485 15.34406543 35798
